H1 CPF 01  gfz 2022 10 14 00  7871 tandemx   
H2 1003001  6202 36605    2022 10 14 00 59 42 2022 10 19 00 00 42   120 1 1  0 0 0
H9
10 0 59867  33102.000000  0   -3574935.652   4612857.561   3651164.956
10 0 59867  33222.000000  0   -3102857.974   4306745.937   4381265.174
10 0 59867  33342.000000  0   -2582642.678   3916676.941   5034243.175
10 0 59867  33462.000000  0   -2024814.675   3448742.502   5598636.945
10 0 59867  33582.000000  0   -1440429.933   2910580.556   6064554.396
10 0 59867  33702.000000  0    -840853.152   2311243.971   6423841.505
10 0 59867  33822.000000  0    -237535.880   1661043.101   6670217.454
10 0 59867  33942.000000  0     358201.555    971365.887   6799379.202
10 0 59867  34062.000000  0     935382.298    254476.729   6809071.523
10 0 59867  34182.000000  0    1483574.047   -476700.806   6699123.750
10 0 59867  34302.000000  0    1993076.883  -1208816.401   6471453.484
10 0 59867  34422.000000  0    2455094.832  -1928335.960   6130035.387
10 0 59867  34542.000000  0    2861889.394  -2621791.943   5680837.228
10 0 59867  34662.000000  0    3206911.876  -3276036.940   5131720.798
10 0 59867  34782.000000  0    3484911.566  -3878495.890   4492310.290
10 0 59867  34902.000000  0    3692019.204  -4417412.410   3773828.883
10 0 59867  35022.000000  0    3825802.610  -4882084.303   2988904.169
10 0 59867  35142.000000  0    3885293.015  -5263082.278   2151346.432
10 0 59867  35262.000000  0    3870981.723  -5552446.850   1275902.752
10 0 59867  35382.000000  0    3784786.418  -5743857.881    377991.502
10 0 59867  35502.000000  0    3629988.247  -5832772.071   -526575.761
10 0 59867  35622.000000  0    3411141.839  -5816527.150  -1421881.746
10 0 59867  35742.000000  0    3133957.685  -5694406.382  -2292192.683
10 0 59867  35862.000000  0    2805163.366  -5467664.482  -3122241.500
10 0 59867  35982.000000  0    2432345.345  -5139513.362  -3897501.088
10 0 59867  36102.000000  0    2023775.661  -4715068.372  -4604439.599
10 0 59867  36222.000000  0    1588229.150  -4201258.101  -5230752.809
10 0 59867  36342.000000  0    1134796.962  -3606700.976  -5765570.922
10 0 59867  36462.000000  0     672698.836  -2941552.275  -6199637.539
10 0 59867  36582.000000  0     211097.838  -2217324.935  -6525458.731
10 0 59867  36702.000000  0    -241077.942  -1446687.202  -6737421.250
10 0 59867  36822.000000  0    -675303.393   -643241.266  -6831879.494
10 0 59867  36942.000000  0   -1083612.255    178713.744  -6807211.168
10 0 59867  37062.000000  0   -1458739.687   1004430.246  -6663841.076
10 0 59867  37182.000000  0   -1794248.479   1818969.956  -6404234.495
10 0 59867  37302.000000  0   -2084637.106   2607467.189  -6032859.458
10 0 59867  37422.000000  0   -2325429.935   3355395.584  -5556119.379
10 0 59867  37542.000000  0   -2513246.685   4048833.998  -4982253.292
10 0 59867  37662.000000  0   -2645851.145   4674727.655  -4321205.357
10 0 59867  37782.000000  0   -2722177.133   5221139.052  -3584462.029
10 0 59867  37902.000000  0   -2742330.139   5677481.642  -2784860.241
10 0 59867  38022.000000  0   -2707565.485   6034734.034  -1936370.980
10 0 59867  38142.000000  0   -2620242.777   6285629.330  -1053856.661
10 0 59867  38262.000000  0   -2483756.611   6424810.464   -152808.781
10 0 59867  38382.000000  0   -2302446.971   6448952.567    750927.203
10 0 59867  38502.000000  0   -2081488.739   6356846.272   1641441.101
10 0 59867  38622.000000  0   -1826762.013   6149433.780   2503049.147
10 0 59867  38742.000000  0   -1544709.111   5829801.569   3320578.197
10 0 59867  38862.000000  0   -1242182.276   5403130.993   4079638.760
10 0 59867  38982.000000  0    -926285.970   4876608.015   4766882.845
10 0 59867  39102.000000  0    -604215.202   4259292.400   5370241.114
10 0 59867  39222.000000  0    -283095.586   3561952.320   5879131.464
10 0 59867  39342.000000  0      30169.681   2796868.473   6284641.444
10 0 59867  39462.000000  0     329044.733   1977610.276   6579678.187
10 0 59867  39582.000000  0     607494.641   1118791.053   6759086.724
10 0 59867  39702.000000  0     860105.186    235804.451   6819734.186
10 0 59867  39822.000000  0    1082186.642   -655450.649   6760560.660
10 0 59867  39942.000000  0    1269860.230  -1538855.837   6582597.794
10 0 59867  40062.000000  0    1420126.051  -2398364.224   6288952.162
10 0 59867  40182.000000  0    1530911.245  -3218292.621   5884754.963
10 0 59867  40302.000000  0    1601097.287  -3983610.260   5377076.924
10 0 59867  40422.000000  0    1630526.451  -4680217.155   4774809.307
10 0 59867  40542.000000  0    1619988.233  -5295208.831   4088514.942
10 0 59867  40662.000000  0    1571185.132  -5817125.120   3330247.914
10 0 59867  40782.000000  0    1486677.525  -6236172.992   2513341.744
10 0 59867  40902.000000  0    1369809.278  -6544418.434   1652174.058
10 0 59867  41022.000000  0    1224616.121  -6735945.664    761910.539
10 0 59867  41142.000000  0    1055718.531  -6806977.488   -141768.597
10 0 59867  41262.000000  0     868200.559  -6755953.949  -1042954.468
10 0 59867  41382.000000  0     667478.567  -6583562.894  -1925800.482
10 0 59867  41502.000000  0     459164.996  -6292724.235  -2774808.198
10 0 59867  41622.000000  0     248930.002  -5888531.792  -3575104.218
10 0 59867  41742.000000  0      42363.778  -5378152.950  -4312703.510
10 0 59867  41862.000000  0    -155157.109  -4770687.981  -4974752.341
10 0 59867  41982.000000  0    -338595.660  -4076995.531  -5549746.312
10 0 59867  42102.000000  0    -503370.053  -3309488.135  -6027721.990
10 0 59867  42222.000000  0    -645456.302  -2481902.462  -6400418.904
10 0 59867  42342.000000  0    -761476.555  -1609049.413  -6661410.795
10 0 59867  42462.000000  0    -848771.565   -706549.436  -6806205.491
10 0 59867  42582.000000  0    -905456.243    209443.653  -6832314.365
10 0 59867  42702.000000  0    -930457.193   1122525.787  -6739289.171
10 0 59867  42822.000000  0    -923532.362   2016328.584  -6528728.766
10 0 59867  42942.000000  0    -885272.452   2874805.170  -6204254.687
10 0 59867  43062.000000  0    -817083.655   3682513.304  -5771457.111
10 0 59867  43182.000000  0    -721152.276   4424891.711  -5237808.232
10 0 59867  43302.000000  0    -600391.301   5088524.106  -4612544.823
10 0 59867  43422.000000  0    -458370.473   5661387.979  -3906519.454
10 0 59867  43542.000000  0    -299230.282   6133081.439  -3132020.984
10 0 59867  43662.000000  0    -127581.372   6495023.106  -2302567.567
10 0 59867  43782.000000  0      51608.386   6740621.082  -1432674.155
10 0 59867  43902.000000  0     233136.650   6865405.557   -537597.939
10 0 59867  44022.000000  0     411696.765   6867120.792    366933.358
10 0 59867  44142.000000  0     582011.990   6745773.638   1265005.050
10 0 59867  44262.000000  0     738969.637   6503635.720   2140804.552
10 0 59867  44382.000000  0     877750.556   6145199.310   2978908.149
10 0 59867  44502.000000  0     993951.905   5677090.690   3764559.738
10 0 59867  44622.000000  0    1083701.859   5107940.760   4483935.933
10 0 59867  44742.000000  0    1143761.537   4448217.621   5124395.744
10 0 59867  44862.000000  0    1171609.418   3710019.643   5674701.260
10 0 59867  44982.000000  0    1165511.832   2906845.583   6125209.395
10 0 59867  45102.000000  0    1124573.822   2053340.816   6468036.488
10 0 59867  45222.000000  0    1048770.943   1165024.916   6697190.647
10 0 59867  45342.000000  0     938961.653    258006.016   6808670.065
10 0 59867  45462.000000  0     796879.955   -651310.563   6800527.940
10 0 59867  45582.000000  0     625108.069  -1546518.429   6672905.953
10 0 59867  45702.000000  0     427029.437  -2411506.125   6428032.142
10 0 59867  45822.000000  0     206762.730  -3230747.955   6070184.862
10 0 59867  45942.000000  0     -30921.502  -3989584.417   5605619.987
10 0 59867  46062.000000  0    -280699.635  -4674485.412   5042466.630
10 0 59867  46182.000000  0    -536808.020  -5273296.513   4390593.389
10 0 59867  46302.000000  0    -793169.877  -5775465.230   3661441.661
10 0 59867  46422.000000  0   -1043532.691  -6172236.926   2867826.268
10 0 59867  46542.000000  0   -1281612.179  -6456816.655   2023710.071
10 0 59867  46662.000000  0   -1501239.537  -6624495.073   1143956.297
10 0 59867  46782.000000  0   -1696510.589  -6672733.503    244060.068
10 0 59867  46902.000000  0   -1861929.226  -6601203.715   -660133.379
10 0 59867  47022.000000  0   -1992542.957  -6411783.404  -1552716.540
10 0 59867  47142.000000  0   -2084067.611  -6108507.699  -2418007.583
10 0 59867  47262.000000  0   -2132998.223  -5697477.961  -3240832.783
10 0 59867  47382.000000  0   -2136702.932  -5186729.559  -4006797.145
10 0 59867  47502.000000  0   -2093497.425  -4586063.033  -4702536.277
10 0 59867  47622.000000  0   -2002698.830  -3906844.967  -5315945.057
10 0 59867  47742.000000  0   -1864658.547  -3161784.008  -5836380.718
10 0 59867  47862.000000  0   -1680773.429  -2364686.577  -6254838.402
10 0 59867  47982.000000  0   -1453474.847  -1530196.667  -6564096.047
10 0 59867  48102.000000  0   -1186196.978   -673526.478  -6758827.111
10 0 59867  48222.000000  0    -883325.517    189817.678  -6835682.278
10 0 59867  48342.000000  0    -550126.261   1044309.886  -6793340.179
10 0 59867  48462.000000  0    -192655.211   1874676.461  -6632527.388
10 0 59867  48582.000000  0     182347.495   2666161.644  -6356007.707
10 0 59867  48702.000000  0     567580.909   3404785.476  -5968541.891
10 0 59867  48822.000000  0     955321.852   4077589.231  -5476813.662
10 0 59867  48942.000000  0    1337574.857   4672863.156  -4889325.027
10 0 59867  49062.000000  0    1706232.779   5180355.730  -4216261.415
10 0 59867  49182.000000  0    2053245.057   5591458.553  -3469324.671
10 0 59867  49302.000000  0    2370789.538   5899362.066  -2661537.716
10 0 59867  49422.000000  0    2651445.018   6099180.031  -1807022.806
10 0 59867  49542.000000  0    2888360.226   6188038.287   -920755.404
99
